NORAD_CAT_ID,OBJECT_NAME,OBJECT_TYPE,EPOCH,MEAN_MOTION,ECCENTRICITY,INCLINATION,RA_OF_ASC_NODE,ARG_OF_PERICENTER,MEAN_ANOMALY,BSTAR,MEAN_MOTION_DOT,MEAN_MOTION_DDOT,TLE_LINE0,TLE_LINE1,TLE_LINE2,SEMIMAJOR_AXIS,PERIOD,APOGEE,PERIGEE,DECAYED
51130.0,STARLINK-3395,PAYLOAD,2023-10-25 06:13:48,15.08850506,0.0001443,53.2151,228.6774,76.295,283.8203,0.0011991,0.00018853,0.0,0 STARLINK-3395,1 51130U 22005AC  23298.25959313  .00018853  00000-0  11991-2 0  9998,2 51130  53.2151 228.6774 0001443  76.2950 283.8203 15.08850506 99042,6917.848,95.437,540.712,538.715,0.0
51130.0,STARLINK-3395,PAYLOAD,2023-10-26 04:29:12,15.08863845,0.0001356,53.2151,224.513,93.3154,266.7993,0.0010222,0.00016028,0.0,0 STARLINK-3395,1 51130U 22005AC  23299.18694904  .00016028  00000-0  10222-2 0  9991,2 51130  53.2151 224.5130 0001356  93.3154 266.7993 15.08863845 99183,6917.808,95.436,540.611,538.734,0.0
51130.0,STARLINK-3395,PAYLOAD,2023-10-27 01:09:13,15.08861302,0.0001441,53.215,220.6479,89.876,270.2397,0.0012872,0.00020269,0.0,0 STARLINK-3395,1 51130U 22005AC  23300.04806911  .00020269  00000-0  12872-2 0  9997,2 51130  53.2150 220.6479 0001441  89.8760 270.2397 15.08861302 99312,6917.815,95.436,540.677,538.683,0.0
51130.0,STARLINK-3395,PAYLOAD,2023-10-27 12:16:55,15.08851599,0.0001638,53.2165,218.5648,99.8988,260.2189,0.00075805,0.00011801,0.0,0 STARLINK-3395,1 51130U 22005AC  23300.51174919  .00011801  00000-0  75805-3 0  9993,2 51130  53.2165 218.5648 0001638  99.8988 260.2189 15.08851599 99385,6917.845,95.437,540.843,538.577,0.0
51130.0,STARLINK-3395,PAYLOAD,2023-10-27 21:49:14,15.08836475,0.000146,53.2156,216.7816,99.8595,260.2562,0.00056913,8.78e-05,0.0,0 STARLINK-3395,1 51130U 22005AC  23300.90919212  .00008780  00000-0  56913-3 0  9990,2 51130  53.2156 216.7816 0001460  99.8595 260.2562 15.08836475 98323,6917.891,95.438,540.766,538.746,0.0
51130.0,STARLINK-3395,PAYLOAD,2023-10-28 01:00:00,15.08839054,0.0001558,53.2159,216.1869,103.1459,256.9707,0.00071124,0.00011049,0.0,0 STARLINK-3395,1 51130U 22005AC  23301.04167278  .00011049  00000-0  71124-3 0  9996,2 51130  53.2159 216.1869 0001558 103.1459 256.9707 15.08839054 99469,6917.883,95.438,540.826,538.67,0.0
51130.0,STARLINK-3395,PAYLOAD,2023-10-28 18:29:15,15.08840656,0.0001486,53.2157,212.9159,93.3072,266.809,0.00090331,0.00014118,0.0,0 STARLINK-3395,1 51130U 22005AC  23301.77032029  .00014118  00000-0  90331-3 0  9992,2 51130  53.2157 212.9159 0001486  93.3072 266.8090 15.08840656 99571,6917.878,95.438,540.771,538.715,0.0
51130.0,STARLINK-3395,PAYLOAD,2023-10-28 21:40:01,15.08844104,0.0001446,53.2161,212.3204,92.9865,267.1292,0.00093374,0.00014605,0.0,0 STARLINK-3395,1 51130U 22005AC  23301.90280004  .00014605  00000-0  93374-3 0  9996,2 51130  53.2161 212.3204 0001446  92.9865 267.1292 15.08844104 98470,6917.868,95.437,540.733,538.733,0.0
51130.0,STARLINK-3395,PAYLOAD,2023-10-29 00:50:48,15.08848851,0.0001486,53.2163,211.7256,95.9618,264.1543,0.00090666,0.00014174,0.0,0 STARLINK-3395,1 51130U 22005AC  23302.03527900  .00014174  00000-0  90666-3 0  9992,2 51130  53.2163 211.7256 0001486  95.9618 264.1543 15.08848851 98496,6917.853,95.437,540.746,538.69,0.0
51130.0,STARLINK-3395,PAYLOAD,2023-10-29 18:20:02,15.08849549,0.0001876,53.2175,208.4582,107.6779,252.4418,0.00053466,8.234e-05,0.0,0 STARLINK-3395,1 51130U 22005AC  23302.76391813  .00008234  00000-0  53466-3 0  9991,2 51130  53.2175 208.4582 0001876 107.6779 252.4418 15.08849549 99729,6917.851,95.437,541.014,538.418,0.0
51130.0,STARLINK-3395,PAYLOAD,2023-10-29 21:30:48,15.08852888,0.000183,53.2173,207.8632,110.6196,249.4992,0.00054917,8.466e-05,0.0,0 STARLINK-3395,1 51130U 22005AC  23302.89639631  .00008466  00000-0  54917-3 0  9997,2 51130  53.2173 207.8632 0001830 110.6196 249.4992 15.08852888 98624,6917.841,95.437,540.972,538.44,0.0
51130.0,STARLINK-3395,PAYLOAD,2023-10-30 10:13:53,15.08852032,0.0001571,53.2166,205.4778,67.7523,292.3635,0.00051278,7.885e-05,0.0,0 STARLINK-3395,1 51130U 22005AC  23303.42631342  .00007885  00000-0  51278-3 0  9999,2 51130  53.2166 205.4778 0001571  67.7523 292.3635 15.08852032 99824,6917.844,95.437,540.795,538.622,0.0
51130.0,STARLINK-3395,PAYLOAD,2023-10-30 18:10:49,15.08834721,0.000183,53.2171,204.0001,101.7633,258.3564,-0.0001361,-2.453e-05,0.0,0 STARLINK-3395,1 51130U 22005AC  23303.75751943 -.00002453  00000-0 -13610-3 0  9991,2 51130  53.2171 204.0001 0001830 101.7633 258.3564 15.08834721 99876,6917.897,95.438,541.027,538.496,0.0
51130.0,STARLINK-3395,PAYLOAD,2023-10-30 21:21:36,15.08831318,0.0001664,53.218,203.406,99.7251,260.3929,-0.00017502,-3.072e-05,0.0,0 STARLINK-3395,1 51130U 22005AC  23303.89000101 -.00003072  00000-0 -17502-3 0  9991,2 51130  53.2180 203.4060 0001664  99.7251 260.3929 15.08831318 98776,6917.907,95.438,540.923,538.621,0.0
51130.0,STARLINK-3395,PAYLOAD,2023-10-31 10:04:41,15.08835111,0.0001608,53.2175,201.027,102.2163,257.9009,5.1176e-05,5.26e-06,0.0,0 STARLINK-3395,1 51130U 22005AC  23304.41992347  .00000526  00000-0  51176-4 0  9997,2 51130  53.2175 201.0270 0001608 102.2163 257.9009 15.08835111 98852,6917.895,95.438,540.873,538.648,0.0
51130.0,STARLINK-3395,PAYLOAD,2023-10-31 21:12:23,15.08849731,0.0001304,53.2161,198.9433,93.5759,266.5382,0.00070082,0.00010886,0.0,0 STARLINK-3395,1 51130U 22005AC  23304.88360083  .00010886  00000-0  70082-3 0  9990,2 51130  53.2161 198.9433 0001304  93.5759 266.5382 15.08849731100046,6917.851,95.437,540.618,538.814,0.0
51130.0,STARLINK-3395,PAYLOAD,2023-11-01 09:55:27,15.0886221,0.0001052,53.2152,196.5626,79.6052,280.5059,0.00096066,0.00015043,0.0,0 STARLINK-3395,1 51130U 22005AC  23305.41351704  .00015043  00000-0  96066-3 0  9990,2 51130  53.2152 196.5626 0001052  79.6052 280.5059 15.08862210 99002,6917.813,95.436,540.405,538.95,0.0
51130.0,STARLINK-3395,PAYLOAD,2023-11-01 21:03:09,15.08844149,0.0001184,53.2153,194.483,86.6526,273.4601,0.00056249,8.676e-05,0.0,0 STARLINK-3395,1 51130U 22005AC  23305.87719848  .00008676  00000-0  56249-3 0  9990,2 51130  53.2153 194.4830 0001184  86.6526 273.4601 15.08844149100195,6917.868,95.437,540.552,538.914,0.0
51130.0,STARLINK-3395,PAYLOAD,2023-11-01 22:38:33,15.08850885,0.0001666,53.2153,194.1851,84.5807,275.5375,0.00037273,5.651e-05,0.0,0 STARLINK-3395,1 51130U 22005AC  23305.94343831  .00005651  00000-0  37273-3 0  9999,2 51130  53.2153 194.1851 0001666  84.5807 275.5375 15.08850885 99089,6917.847,95.437,540.865,538.56,0.0
51130.0,STARLINK-3395,PAYLOAD,2023-11-02 09:46:14,15.08852148,0.0001341,53.2149,192.103,96.0441,264.0704,0.00066467,0.0001031,0.0,0 STARLINK-3395,1 51130U 22005AC  23306.40711646  .00010310  00000-0  66467-3 0  9999,2 51130  53.2149 192.1030 0001341  96.0441 264.0704 15.08852148 99154,6917.843,95.437,540.636,538.781,0.0
51130.0,STARLINK-3395,PAYLOAD,2023-11-02 20:53:57,15.08849731,0.000198,53.2147,190.0213,95.2283,264.8935,0.00061521,9.519e-05,0.0,0 STARLINK-3395,1 51130U 22005AC  23306.87079883  .00009519  00000-0  61521-3 0  9995,2 51130  53.2147 190.0213 0001980  95.2283 264.8935 15.08849731100348,6917.851,95.437,541.085,538.346,0.0
51130.0,STARLINK-3395,PAYLOAD,2023-11-02 22:29:19,15.08843604,0.0001369,53.2134,189.7225,100.7928,259.3218,0.00019196,2.769e-05,0.0,0 STARLINK-3395,1 51130U 22005AC  23306.93703702  .00002769  00000-0  19196-3 0  9997,2 51130  53.2134 189.7225 0001369 100.7928 259.3218 15.08843604 99232,6917.869,95.437,540.681,538.787,0.0
51130.0,STARLINK-3395,PAYLOAD,2023-11-03 09:37:02,15.08835835,0.0001857,53.2145,187.6417,87.6778,272.4426,2.935e-05,1.79e-06,0.0,0 STARLINK-3395,1 51130U 22005AC  23307.40072246  .00000179  00000-0  29350-4 0  9999,2 51130  53.2145 187.6417 0001857  87.6778 272.4426 15.08835835100420,6917.893,95.438,541.043,538.473,0.0
51130.0,STARLINK-3395,PAYLOAD,2023-11-03 22:20:07,15.08837538,0.0001587,53.2152,185.2618,88.5944,271.523,0.00023634,3.475e-05,0.0,0 STARLINK-3395,1 51130U 22005AC  23307.93064364  .00003475  00000-0  23634-3 0  9999,2 51130  53.2152 185.2618 0001587  88.5944 271.5230 15.08837538 99387,6917.888,95.438,540.851,538.655,0.0
51130.0,STARLINK-3395,PAYLOAD,2023-11-04 09:27:49,15.08836998,0.0001654,53.2159,183.1787,92.6377,267.4805,0.00033934,5.116e-05,0.0,0 STARLINK-3395,1 51130U 22005AC  23308.39432562  .00005116  00000-0  33934-3 0  9997,2 51130  53.2159 183.1787 0001654  92.6377 267.4805 15.08836998 99458,6917.89,95.438,540.899,538.61,0.0
51130.0,STARLINK-3395,PAYLOAD,2023-11-04 20:35:31,15.08841542,0.0001623,53.2159,181.0968,96.0157,264.102,0.00028888,4.313e-05,0.0,0 STARLINK-3395,1 51130U 22005AC  23308.85800576  .00004313  00000-0  28888-3 0  9992,2 51130  53.2159 181.0968 0001623  96.0157 264.1020 15.08841542100644,6917.876,95.437,540.863,538.618,0.0
51130.0,STARLINK-3395,PAYLOAD,2023-11-04 22:10:54,15.0884363,0.0001607,53.2156,180.7988,103.2298,256.8873,0.00032749,4.928e-05,0.0,0 STARLINK-3395,1 51130U 22005AC  23308.92424458  .00004928  00000-0  32749-3 0  9994,2 51130  53.2156 180.7988 0001607 103.2298 256.8873 15.08843630 99537,6917.869,95.437,540.846,538.623,0.0
51130.0,STARLINK-3395,PAYLOAD,2023-11-05 01:21:40,15.08848801,0.0001652,53.216,180.2034,105.5858,254.5316,0.00033184,4.998e-05,0.0,0 STARLINK-3395,1 51130U 22005AC  23309.05672239  .00004998  00000-0  33184-3 0  9992,2 51130  53.2160 180.2034 0001652 105.5858 254.5316 15.08848801 99550,6917.853,95.437,540.861,538.576,0.0
51130.0,STARLINK-3395,PAYLOAD,2023-11-05 20:26:17,15.0886051,0.0001659,53.2162,176.6356,92.6202,267.498,0.00051227,7.879e-05,0.0,0 STARLINK-3395,1 51130U 22005AC  23309.85159604  .00007879  00000-0  51227-3 0  9995,2 51130  53.2162 176.6356 0001659  92.6202 267.4980 15.08860510100794,6917.818,95.436,540.83,538.535,0.0
51130.0,STARLINK-3395,PAYLOAD,2023-11-05 22:01:40,15.08882564,0.0001561,53.216,176.3391,95.0864,265.0306,0.0012691,0.00019991,0.0,0 STARLINK-3395,1 51130U 22005AC  23309.91783217  .00019991  00000-0  12691-2 0  9994,2 51130  53.2160 176.3391 0001561  95.0864 265.0306 15.08882564 99685,6917.75,95.435,540.695,538.535,0.0
